{"type": "FeatureCollection", "features": [ {"type": "Feature", "properties": {"norad_id": 39155, "name": "COSMOS 2485 (747)", "group": "glo-ops", "lat": 54.963385206139186, "lon": 121.15104425337537, "alt_km": 19183.079636955845, "timestamp": "2025-12-02T08:59:32.975187+00:00", "meta": {"OBJECT_NAME": "COSMOS 2485 (747)", "OBJECT_ID": "2013-019A", "EPOCH": "2025-11-24T07:30:54.982368", "MEAN_MOTION": 2.13103115, "ECCENTRICITY": 0.0024274, "INCLINATION": 65.3036, "RA_OF_ASC_NODE": 80.4871, "ARG_OF_PERICENTER": 228.0776, "MEAN_ANOMALY": 131.7167, "EPHEMERIS_TYPE": 0, "CLASSIFICATION_TYPE": "U", "NORAD_CAT_ID": 39155, "ELEMENT_SET_NO": 999, "REV_AT_EPOCH": 9791, "BSTAR": 0, "MEAN_MOTION_DOT": 1.2e-07, "MEAN_MOTION_DDOT": 0}, "tle": {"line1": "1 39155U 13019A   25328.31313637  .00000012  00000+0  00000+0 0  9995", "line2": "2 39155  65.3036  80.4871 0024274 228.0776 131.7167  2.13103115 97916"}}, "geometry": {"type": "Point", "coordinates": [121.15104425337537, 54.963385206139186]}}, {"type": "Feature", "properties": {"norad_id": 39620, "name": "COSMOS 2492 (754)", "group": "glo-ops", "lat": 64.64765481163812, "lon": 65.49156371390042, "alt_km": 19152.6766432174, "timestamp": "2025-12-02T08:59:32.975198+00:00", "meta": {"OBJECT_NAME": "COSMOS 2492 (754)", "OBJECT_ID": "2014-012A", "EPOCH": "2025-12-01T18:43:02.781984", "MEAN_MOTION": 2.13103082, "ECCENTRICITY": 0.0014157, "INCLINATION": 65.4139, "RA_OF_ASC_NODE": 320.6425, "ARG_OF_PERICENTER": 310.9, "MEAN_ANOMALY": 48.9873, "EPHEMERIS_TYPE": 0, "CLASSIFICATION_TYPE": "U", "NORAD_CAT_ID": 39620, "ELEMENT_SET_NO": 999, "REV_AT_EPOCH": 9103, "BSTAR": 0, "MEAN_MOTION_DOT": -2.9e-07, "MEAN_MOTION_DDOT": 0}, "tle": {"line1": "1 39620U 14012A   25335.77989331 -.00000029  00000+0  00000+0 0  9993", "line2": "2 39620  65.4139 320.6425 0014157 310.9000  48.9873  2.13103082 91035"}}, "geometry": {"type": "Point", "coordinates": [65.49156371390042, 64.64765481163812]}}, {"type": "Feature", "properties": {"norad_id": 40001, "name": "COSMOS 2500 (755)", "group": "glo-ops", "lat": -32.1730869152444, "lon": -56.41490485032306, "alt_km": 19139.341907837144, "timestamp": "2025-12-02T08:59:32.975225+00:00", "meta": {"OBJECT_NAME": "COSMOS 2500 (755)", "OBJECT_ID": "2014-032A", "EPOCH": "2025-12-01T22:51:13.641408", "MEAN_MOTION": 2.13105853, "ECCENTRICITY": 0.0008298, "INCLINATION": 65.3495, "RA_OF_ASC_NODE": 320.3998, "ARG_OF_PERICENTER": 219.081, "MEAN_ANOMALY": 140.8682, "EPHEMERIS_TYPE": 0, "CLASSIFICATION_TYPE": "U", "NORAD_CAT_ID": 40001, "ELEMENT_SET_NO": 999, "REV_AT_EPOCH": 8925, "BSTAR": 0, "MEAN_MOTION_DOT": -3.1e-07, "MEAN_MOTION_DDOT": 0}, "tle": {"line1": "1 40001U 14032A   25335.95224122 -.00000031  00000+0  00000+0 0  9993", "line2": "2 40001  65.3495 320.3998 0008298 219.0810 140.8682  2.13105853 89252"}}, "geometry": {"type": "Point", "coordinates": [-56.41490485032306, -32.1730869152444]}}, {"type": "Feature", "properties": {"norad_id": 40315, "name": "COSMOS 2501 (702K)", "group": "glo-ops", "lat": 47.48048140371529, "lon": -15.575764507812284, "alt_km": 19115.679288073632, "timestamp": "2025-12-02T08:59:32.975239+00:00", "meta": {"OBJECT_NAME": "COSMOS 2501 (702K)", "OBJECT_ID": "2014-075A", "EPOCH": "2025-11-30T19:17:52.497312", "MEAN_MOTION": 2.13101305, "ECCENTRICITY": 0.00201676, "INCLINATION": 63.6137, "RA_OF_ASC_NODE": 197.2386, "ARG_OF_PERICENTER": 204.7979, "MEAN_ANOMALY": 155.1955, "EPHEMERIS_TYPE": 0, "CLASSIFICATION_TYPE": "U", "NORAD_CAT_ID": 40315, "ELEMENT_SET_NO": 999, "REV_AT_EPOCH": 8562, "BSTAR": 0, "MEAN_MOTION_DOT": 1e-06, "MEAN_MOTION_DDOT": 0}, "tle": {"line1": "1 40315U 14075A   25334.80407983  .00000100  00000+0  00000+0 0  9995", "line2": "2 40315  63.6137 197.2386 0020167 204.7979 155.1955  2.13101305 85629"}}, "geometry": {"type": "Point", "coordinates": [-15.575764507812284, 47.48048140371529]}}, {"type": "Feature", "properties": {"norad_id": 41330, "name": "COSMOS 2514 (751)", "group": "glo-ops", "lat": 38.18356474618407, "lon": 118.36343616371164, "alt_km": 19121.458911490994, "timestamp": "2025-12-02T08:59:32.975278+00:00", "meta": {"OBJECT_NAME": "COSMOS 2514 (751)", "OBJECT_ID": "2016-008A", "EPOCH": "2025-12-01T06:10:30.326016", "MEAN_MOTION": 2.13102518, "ECCENTRICITY": 0.0012529, "INCLINATION": 65.1403, "RA_OF_ASC_NODE": 319.7975, "ARG_OF_PERICENTER": 219.8281, "MEAN_ANOMALY": 140.091, "EPHEMERIS_TYPE": 0, "CLASSIFICATION_TYPE": "U", "NORAD_CAT_ID": 41330, "ELEMENT_SET_NO": 999, "REV_AT_EPOCH": 7640, "BSTAR": 0, "MEAN_MOTION_DOT": -2.7e-07, "MEAN_MOTION_DDOT": 0}, "tle": {"line1": "1 41330U 16008A   25335.25729544 -.00000027  00000+0  00000+0 0  9990", "line2": "2 41330  65.1403 319.7975 0012529 219.8281 140.0910  2.13102518 76408"}}, "geometry": {"type": "Point", "coordinates": [118.36343616371164, 38.18356474618407]}}, {"type": "Feature", "properties": {"norad_id": 42939, "name": "COSMOS 2522 (752)", "group": "glo-ops", "lat": -62.716406295628325, "lon": 89.07966994946086, "alt_km": 19122.700697646076, "timestamp": "2025-12-02T08:59:32.975296+00:00", "meta": {"OBJECT_NAME": "COSMOS 2522 (752)", "OBJECT_ID": "2017-055A", "EPOCH": "2025-12-02T00:49:19.074720", "MEAN_MOTION": 2.13101862, "ECCENTRICITY": 0.0006551, "INCLINATION": 64.0757, "RA_OF_ASC_NODE": 198.5937, "ARG_OF_PERICENTER": 226.1288, "MEAN_ANOMALY": 133.9117, "EPHEMERIS_TYPE": 0, "CLASSIFICATION_TYPE": "U", "NORAD_CAT_ID": 42939, "ELEMENT_SET_NO": 999, "REV_AT_EPOCH": 6377, "BSTAR": 0, "MEAN_MOTION_DOT": 1.06e-06, "MEAN_MOTION_DDOT": 0}, "tle": {"line1": "1 42939U 17055A   25336.03424855  .00000106  00000+0  00000+0 0  9990", "line2": "2 42939  64.0757 198.5937 0006551 226.1288 133.9117  2.13101862 63778"}}, "geometry": {"type": "Point", "coordinates": [89.07966994946086, -62.716406295628325]}}, {"type": "Feature", "properties": {"norad_id": 43508, "name": "COSMOS 2527 (756)", "group": "glo-ops", "lat": -57.91612631348375, "lon": 33.79978840109203, "alt_km": 19128.119438507507, "timestamp": "2025-12-02T08:59:32.975308+00:00", "meta": {"OBJECT_NAME": "COSMOS 2527 (756)", "OBJECT_ID": "2018-053A", "EPOCH": "2025-11-28T17:02:34.696320", "MEAN_MOTION": 2.1310209, "ECCENTRICITY": 0.00085767, "INCLINATION": 65.4651, "RA_OF_ASC_NODE": 80.6007, "ARG_OF_PERICENTER": 223.0414, "MEAN_ANOMALY": 136.8979, "EPHEMERIS_TYPE": 0, "CLASSIFICATION_TYPE": "U", "NORAD_CAT_ID": 43508, "ELEMENT_SET_NO": 999, "REV_AT_EPOCH": 5800, "BSTAR": 0, "MEAN_MOTION_DOT": 1.2e-07, "MEAN_MOTION_DDOT": 0}, "tle": {"line1": "1 43508U 18053A   25332.71012380  .00000012  00000+0  00000+0 0  9995", "line2": "2 43508  65.4651  80.6007 0008576 223.0414 136.8979  2.13102090 58006"}}, "geometry": {"type": "Point", "coordinates": [33.79978840109203, -57.91612631348375]}}, {"type": "Feature", "properties": {"norad_id": 43687, "name": "COSMOS 2529 (757)", "group": "glo-ops", "lat": -32.354981512198705, "lon": 37.001578164623034, "alt_km": 19119.444141881573, "timestamp": "2025-12-02T08:59:32.975320+00:00", "meta": {"OBJECT_NAME": "COSMOS 2529 (757)", "OBJECT_ID": "2018-086A", "EPOCH": "2025-12-01T03:41:39.870816", "MEAN_MOTION": 2.13101897, "ECCENTRICITY": 0.0007348, "INCLINATION": 64.2916, "RA_OF_ASC_NODE": 199.28, "ARG_OF_PERICENTER": 254.5997, "MEAN_ANOMALY": 105.4111, "EPHEMERIS_TYPE": 0, "CLASSIFICATION_TYPE": "U", "NORAD_CAT_ID": 43687, "ELEMENT_SET_NO": 999, "REV_AT_EPOCH": 5506, "BSTAR": 0, "MEAN_MOTION_DOT": 9.9e-07, "MEAN_MOTION_DDOT": 0}, "tle": {"line1": "1 43687U 18086A   25335.15393369  .00000099  00000+0  00000+0 0  9994", "line2": "2 43687  64.2916 199.2800 0007348 254.5997 105.4111  2.13101897 55061"}}, "geometry": {"type": "Point", "coordinates": [37.001578164623034, -32.354981512198705]}}, {"type": "Feature", "properties": {"norad_id": 44299, "name": "COSMOS 2534 (758)", "group": "glo-ops", "lat": -8.153198700233412, "lon": -164.69868006756522, "alt_km": 19122.593609180985, "timestamp": "2025-12-02T08:59:32.975331+00:00", "meta": {"OBJECT_NAME": "COSMOS 2534 (758)", "OBJECT_ID": "2019-030A", "EPOCH": "2025-12-01T03:07:57.438624", "MEAN_MOTION": 2.1310195, "ECCENTRICITY": 0.00091167, "INCLINATION": 64.3652, "RA_OF_ASC_NODE": 199.2842, "ARG_OF_PERICENTER": 283.4428, "MEAN_ANOMALY": 193.0266, "EPHEMERIS_TYPE": 0, "CLASSIFICATION_TYPE": "U", "NORAD_CAT_ID": 44299, "ELEMENT_SET_NO": 999, "REV_AT_EPOCH": 5070, "BSTAR": 0, "MEAN_MOTION_DOT": 9.9e-07, "MEAN_MOTION_DDOT": 0}, "tle": {"line1": "1 44299U 19030A   25335.13052591  .00000099  00000+0  00000+0 0  9991", "line2": "2 44299  64.3652 199.2842 0009116 283.4428 193.0266  2.13101950 50700"}}, "geometry": {"type": "Point", "coordinates": [-164.69868006756522, -8.153198700233412]}}, {"type": "Feature", "properties": {"norad_id": 44850, "name": "COSMOS 2544 (759)", "group": "glo-ops", "lat": -23.604701362636423, "lon": 68.80052569652965, "alt_km": 19130.371930588306, "timestamp": "2025-12-02T08:59:32.975342+00:00", "meta": {"OBJECT_NAME": "COSMOS 2544 (759)", "OBJECT_ID": "2019-088A", "EPOCH": "2025-12-01T22:32:51.228384", "MEAN_MOTION": 2.13101823, "ECCENTRICITY": 0.0013663, "INCLINATION": 65.4542, "RA_OF_ASC_NODE": 80.3197, "ARG_OF_PERICENTER": 248.783, "MEAN_ANOMALY": 111.0683, "EPHEMERIS_TYPE": 0, "CLASSIFICATION_TYPE": "U", "NORAD_CAT_ID": 44850, "ELEMENT_SET_NO": 999, "REV_AT_EPOCH": 4651, "BSTAR": 0, "MEAN_MOTION_DOT": -1.6e-07, "MEAN_MOTION_DDOT": 0}, "tle": {"line1": "1 44850U 19088A   25335.93948181 -.00000016  00000+0  00000+0 0  9994", "line2": "2 44850  65.4542  80.3197 0013663 248.7830 111.0683  2.13101823 46515"}}, "geometry": {"type": "Point", "coordinates": [68.80052569652965, -23.604701362636423]}}]}